ONEWEB-0279             
1 48997U 21060AG  25293.27534629 -.00000116  00000+0 -33615-3 0  9995
2 48997  87.8982 276.5606 0001727  96.4253 263.7075 13.16593180208051
ONEWEB-0280             
1 48998U 21060AH  25293.21441358 -.00000009  00000+0 -56892-4 0  9990
2 48998  87.8980 276.5805 0002260  90.9705 269.1685 13.16593185207988
ONEWEB-0281             
1 48999U 21060AJ  25293.21992986  .00000025  00000+0  30648-4 0  9996
2 48999  87.8979 276.5754 0001754  85.8277 274.3054 13.16597723208053
ONEWEB-0282             
1 49000U 21060AK  25293.25003753  .00000121  00000+0  28216-3 0  9993
2 49000  87.8979 276.5804 0001971  92.5106 267.6251 13.16593750208038
ONEWEB-0283             
1 49001U 21060AL  25293.23893033 -.00000568  00000+0 -15202-2 0  9997
2 49001  87.8977 276.5833 0001819  93.4502 266.6837 13.16595372208042
ONEWEB-0284             
1 49002U 21060AM  25293.23261666  .00000043  00000+0  79038-4 0  9994
2 49002  87.8986 276.5697 0002269  87.1257 273.0134 13.16593331208021
ONEWEB-0285             
1 49075U 21075A   25293.29442838  .00000383  00000+0  10302-2 0  9992
2 49075  87.8964  38.3132 0001765 101.6765 258.4562 13.12442531203748
ONEWEB-0286             
1 49076U 21075B   25293.27631872  .00000349  00000+0  93387-3 0  9996
2 49076  87.8961  38.3526 0001646  96.0069 264.1247 13.12442920203099
ONEWEB-0287             
1 49077U 21075C   25293.28428113  .00000727  00000+0  18385-2 0  9994
2 49077  87.9119  53.5685 0001586  88.5777 271.5536 13.17652834202034
ONEWEB-0288             
1 49078U 21075D   25293.25210142 -.00000293  00000+0 -84939-3 0  9992
2 49078  87.8964  38.3166 0001839  98.1979 261.9359 13.12444786203711
ONEWEB-0289             
1 49079U 21075E   25293.32297584  .00000044  00000+0  79231-4 0  9998
2 49079  87.9101  53.5821 0002134 100.3981 259.7391 13.17648254202611
ONEWEB-0290             
1 49080U 21075F   25293.29611678  .00000058  00000+0  11683-3 0  9991
2 49080  87.9112  53.5450 0002207 107.5953 252.5420 13.17648364202023
ONEWEB-0291             
1 49081U 21075G   25293.28092955  .00000055  00000+0  10916-3 0  9997
2 49081  87.9116  53.5536 0001894  89.7856 270.3493 13.17647975202011
ONEWEB-0293             
1 49082U 21075H   25293.30624173  .00000037  00000+0  63001-4 0  9998
2 49082  87.9105  53.5743 0001788  99.8350 260.2984 13.17648357202044
ONEWEB-0294             
1 49083U 21075J   25293.25859631 -.00000169  00000+0 -50459-3 0  9992
2 49083  87.8964  38.3158 0002240 101.3109 258.8271 13.12444281203108
ONEWEB-0295             
1 49084U 21075K   25293.30537508 -.00000298  00000+0 -80124-3 0  9990
2 49084  87.9107  53.5792 0001815  88.7588 271.3751 13.17648382202002
