[{"OBJECT_NAME":"ONEWEB-0279","OBJECT_ID":"2021-060AG","EPOCH":"2025-10-20T06:36:29.919456","MEAN_MOTION":13.1659318,"ECCENTRICITY":0.0001727,"INCLINATION":87.8982,"RA_OF_ASC_NODE":276.5606,"ARG_OF_PERICENTER":96.4253,"MEAN_ANOMALY":263.7075,"EPHEMERIS_TYPE":0,"CLASSIFICATION_TYPE":"U","NORAD_CAT_ID":48997,"ELEMENT_SET_NO":999,"REV_AT_EPOCH":20805,"BSTAR":-0.00033615234,"MEAN_MOTION_DOT":-1.16e-6,"MEAN_MOTION_DDOT":0},{"OBJECT_NAME":"ONEWEB-0280","OBJECT_ID":"2021-060AH","EPOCH":"2025-10-20T05:08:45.333312","MEAN_MOTION":13.16593185,"ECCENTRICITY":0.00022604,"INCLINATION":87.898,"RA_OF_ASC_NODE":276.5805,"ARG_OF_PERICENTER":90.9705,"MEAN_ANOMALY":269.1685,"EPHEMERIS_TYPE":0,"CLASSIFICATION_TYPE":"U","NORAD_CAT_ID":48998,"ELEMENT_SET_NO":999,"REV_AT_EPOCH":20798,"BSTAR":-5.6892019e-5,"MEAN_MOTION_DOT":-9.0e-8,"MEAN_MOTION_DDOT":0},{"OBJECT_NAME":"ONEWEB-0281","OBJECT_ID":"2021-060AJ","EPOCH":"2025-10-20T05:16:41.939904","MEAN_MOTION":13.16597723,"ECCENTRICITY":0.00017548,"INCLINATION":87.8979,"RA_OF_ASC_NODE":276.5754,"ARG_OF_PERICENTER":85.8277,"MEAN_ANOMALY":274.3054,"EPHEMERIS_TYPE":0,"CLASSIFICATION_TYPE":"U","NORAD_CAT_ID":48999,"ELEMENT_SET_NO":999,"REV_AT_EPOCH":20805,"BSTAR":3.0648466e-5,"MEAN_MOTION_DOT":2.5e-7,"MEAN_MOTION_DDOT":0},{"OBJECT_NAME":"ONEWEB-0282","OBJECT_ID":"2021-060AK","EPOCH":"2025-10-20T06:00:03.242592","MEAN_MOTION":13.1659375,"ECCENTRICITY":0.00019715,"INCLINATION":87.8979,"RA_OF_ASC_NODE":276.5804,"ARG_OF_PERICENTER":92.5106,"MEAN_ANOMALY":267.6251,"EPHEMERIS_TYPE":0,"CLASSIFICATION_TYPE":"U","NORAD_CAT_ID":49000,"ELEMENT_SET_NO":999,"REV_AT_EPOCH":20803,"BSTAR":0.00028216285,"MEAN_MOTION_DOT":1.21e-6,"MEAN_MOTION_DDOT":0},{"OBJECT_NAME":"ONEWEB-0283","OBJECT_ID":"2021-060AL","EPOCH":"2025-10-20T05:44:03.580512","MEAN_MOTION":13.16595372,"ECCENTRICITY":0.00018195,"INCLINATION":87.8977,"RA_OF_ASC_NODE":276.5833,"ARG_OF_PERICENTER":93.4502,"MEAN_ANOMALY":266.6837,"EPHEMERIS_TYPE":0,"CLASSIFICATION_TYPE":"U","NORAD_CAT_ID":49001,"ELEMENT_SET_NO":999,"REV_AT_EPOCH":20804,"BSTAR":-0.0015201849,"MEAN_MOTION_DOT":-5.68e-6,"MEAN_MOTION_DDOT":0},{"OBJECT_NAME":"ONEWEB-0284","OBJECT_ID":"2021-060AM","EPOCH":"2025-10-20T05:34:58.079424","MEAN_MOTION":13.16593331,"ECCENTRICITY":0.00022692,"INCLINATION":87.8986,"RA_OF_ASC_NODE":276.5697,"ARG_OF_PERICENTER":87.1257,"MEAN_ANOMALY":273.0134,"EPHEMERIS_TYPE":0,"CLASSIFICATION_TYPE":"U","NORAD_CAT_ID":49002,"ELEMENT_SET_NO":999,"REV_AT_EPOCH":20802,"BSTAR":7.9037801e-5,"MEAN_MOTION_DOT":4.3e-7,"MEAN_MOTION_DDOT":0},{"OBJECT_NAME":"ONEWEB-0285","OBJECT_ID":"2021-075A","EPOCH":"2025-10-20T07:03:58.612032","MEAN_MOTION":13.12442531,"ECCENTRICITY":0.00017654,"INCLINATION":87.8964,"RA_OF_ASC_NODE":38.3132,"ARG_OF_PERICENTER":101.6765,"MEAN_ANOMALY":258.4562,"EPHEMERIS_TYPE":0,"CLASSIFICATION_TYPE":"U","NORAD_CAT_ID":49075,"ELEMENT_SET_NO":999,"REV_AT_EPOCH":20374,"BSTAR":0.001030217,"MEAN_MOTION_DOT":3.83e-6,"MEAN_MOTION_DDOT":0},{"OBJECT_NAME":"ONEWEB-0286","OBJECT_ID":"2021-075B","EPOCH":"2025-10-20T06:37:53.937408","MEAN_MOTION":13.1244292,"ECCENTRICITY":0.00016468,"INCLINATION":87.8961,"RA_OF_ASC_NODE":38.3526,"ARG_OF_PERICENTER":96.0069,"MEAN_ANOMALY":264.1247,"EPHEMERIS_TYPE":0,"CLASSIFICATION_TYPE":"U","NORAD_CAT_ID":49076,"ELEMENT_SET_NO":999,"REV_AT_EPOCH":20309,"BSTAR":0.00093386978,"MEAN_MOTION_DOT":3.49e-6,"MEAN_MOTION_DDOT":0},{"OBJECT_NAME":"ONEWEB-0287","OBJECT_ID":"2021-075C","EPOCH":"2025-10-20T06:49:21.889632","MEAN_MOTION":13.17652834,"ECCENTRICITY":0.00015863,"INCLINATION":87.9119,"RA_OF_ASC_NODE":53.5685,"ARG_OF_PERICENTER":88.5777,"MEAN_ANOMALY":271.5536,"EPHEMERIS_TYPE":0,"CLASSIFICATION_TYPE":"U","NORAD_CAT_ID":49077,"ELEMENT_SET_NO":999,"REV_AT_EPOCH":20203,"BSTAR":0.001838534,"MEAN_MOTION_DOT":7.27e-6,"MEAN_MOTION_DDOT":0},{"OBJECT_NAME":"ONEWEB-0288","OBJECT_ID":"2021-075D","EPOCH":"2025-10-20T06:03:01.562688","MEAN_MOTION":13.12444786,"ECCENTRICITY":0.00018399,"INCLINATION":87.8964,"RA_OF_ASC_NODE":38.3166,"ARG_OF_PERICENTER":98.1979,"MEAN_ANOMALY":261.9359,"EPHEMERIS_TYPE":0,"CLASSIFICATION_TYPE":"U","NORAD_CAT_ID":49078,"ELEMENT_SET_NO":999,"REV_AT_EPOCH":20371,"BSTAR":-0.00084938771,"MEAN_MOTION_DOT":-2.93e-6,"MEAN_MOTION_DDOT":0},{"OBJECT_NAME":"ONEWEB-0289","OBJECT_ID":"2021-075E","EPOCH":"2025-10-20T07:45:05.112576","MEAN_MOTION":13.17648254,"ECCENTRICITY":0.00021346,"INCLINATION":87.9101,"RA_OF_ASC_NODE":53.5821,"ARG_OF_PERICENTER":100.3981,"MEAN_ANOMALY":259.7391,"EPHEMERIS_TYPE":0,"CLASSIFICATION_TYPE":"U","NORAD_CAT_ID":49079,"ELEMENT_SET_NO":999,"REV_AT_EPOCH":20261,"BSTAR":7.9231364e-5,"MEAN_MOTION_DOT":4.4e-7,"MEAN_MOTION_DDOT":0},{"OBJECT_NAME":"ONEWEB-0290","OBJECT_ID":"2021-075F","EPOCH":"2025-10-20T07:06:24.489792","MEAN_MOTION":13.17648364,"ECCENTRICITY":0.0002207,"INCLINATION":87.9112,"RA_OF_ASC_NODE":53.545,"ARG_OF_PERICENTER":107.5953,"MEAN_ANOMALY":252.542,"EPHEMERIS_TYPE":0,"CLASSIFICATION_TYPE":"U","NORAD_CAT_ID":49080,"ELEMENT_SET_NO":999,"REV_AT_EPOCH":20202,"BSTAR":0.00011683122,"MEAN_MOTION_DOT":5.8e-7,"MEAN_MOTION_DDOT":0},{"OBJECT_NAME":"ONEWEB-0291","OBJECT_ID":"2021-075G","EPOCH":"2025-10-20T06:44:32.313120","MEAN_MOTION":13.17647975,"ECCENTRICITY":0.00018949,"INCLINATION":87.9116,"RA_OF_ASC_NODE":53.5536,"ARG_OF_PERICENTER":89.7856,"MEAN_ANOMALY":270.3493,"EPHEMERIS_TYPE":0,"CLASSIFICATION_TYPE":"U","NORAD_CAT_ID":49081,"ELEMENT_SET_NO":999,"REV_AT_EPOCH":20201,"BSTAR":0.0001091605,"MEAN_MOTION_DOT":5.5e-7,"MEAN_MOTION_DDOT":0},{"OBJECT_NAME":"ONEWEB-0293","OBJECT_ID":"2021-075H","EPOCH":"2025-10-20T07:20:59.285472","MEAN_MOTION":13.17648357,"ECCENTRICITY":0.00017883,"INCLINATION":87.9105,"RA_OF_ASC_NODE":53.5743,"ARG_OF_PERICENTER":99.835,"MEAN_ANOMALY":260.2984,"EPHEMERIS_TYPE":0,"CLASSIFICATION_TYPE":"U","NORAD_CAT_ID":49082,"ELEMENT_SET_NO":999,"REV_AT_EPOCH":20204,"BSTAR":6.3001009e-5,"MEAN_MOTION_DOT":3.7e-7,"MEAN_MOTION_DDOT":0},{"OBJECT_NAME":"ONEWEB-0294","OBJECT_ID":"2021-075J","EPOCH":"2025-10-20T06:12:22.721184","MEAN_MOTION":13.12444281,"ECCENTRICITY":0.00022403,"INCLINATION":87.8964,"RA_OF_ASC_NODE":38.3158,"ARG_OF_PERICENTER":101.3109,"MEAN_ANOMALY":258.8271,"EPHEMERIS_TYPE":0,"CLASSIFICATION_TYPE":"U","NORAD_CAT_ID":49083,"ELEMENT_SET_NO":999,"REV_AT_EPOCH":20310,"BSTAR":-0.00050458665,"MEAN_MOTION_DOT":-1.69e-6,"MEAN_MOTION_DDOT":0},{"OBJECT_NAME":"ONEWEB-0295","OBJECT_ID":"2021-075K","EPOCH":"2025-10-20T07:19:44.406912","MEAN_MOTION":13.17648382,"ECCENTRICITY":0.0001815,"INCLINATION":87.9107,"RA_OF_ASC_NODE":53.5792,"ARG_OF_PERICENTER":88.7588,"MEAN_ANOMALY":271.3751,"EPHEMERIS_TYPE":0,"CLASSIFICATION_TYPE":"U","NORAD_CAT_ID":49084,"ELEMENT_SET_NO":999,"REV_AT_EPOCH":20200,"BSTAR":-0.00080123627,"MEAN_MOTION_DOT":-2.98e-6,"MEAN_MOTION_DDOT":0}]
